NOAA 1 [-]              
1 04793U 70106A   16092.51695403 -.00000045  00000-0  58183-5 0  9998
2 04793 101.8632 152.5779 0031874  28.0251  76.6017 12.53976100 73790
NOAA 2 [-]              
1 06235U 72082A   16092.51328803 -.00000008  00000-0  22559-3 0  9998
2 06235 101.6166  60.1619 0004205 118.5854 349.4953 12.53079352988127
NOAA 3 [-]              
1 06920U 73086A   16092.50748429 -.00000018  00000-0  19486-3 0  9999
2 06920 101.8763  65.5731 0006438 179.9608 293.0045 12.40357343919782
NOAA 4 [-]              
1 07529U 74089A   16092.52078456 -.00000024  00000-0  12378-3 0  9997
2 07529 101.5771  65.3564 0009091 154.0529 316.5878 12.53111467892717
NOAA 5 [-]              
1 09057U 76077A   16092.54432439 -.00000045  00000-0 -14596-4 0  9990
2 09057 101.7839  83.7559 0010020  35.3749  74.5092 12.37772107793365
TIROS N [P]             
1 11060U 78096A   16092.52040599  .00000041  00000-0  42095-4 0  9999
2 11060  98.9546 134.0820 0011164 156.6181 203.5503 14.18104154150384
NOAA 6 [P]              
1 11416U 79057A   16092.52703622  .00000107  00000-0  54552-4 0  9999
2 11416  98.5389  79.4175 0011490 112.0490 248.1916 14.33328480916803
NOAA 7 [-]              
1 12553U 81059A   16092.57033060  .00000009  00000-0  27275-4 0  9997
2 12553  98.9957  61.7528 0012535  73.0821  41.0581 14.17183893796782
NOAA 8 [-]              
1 13923U 83022A   16092.53992284  .00000078  00000-0  48067-4 0  9997
2 13923  98.4821  88.1991 0015846  25.7441 334.4527 14.28514320718830
NOAA 9 [P]              
1 15427U 84123A   16092.49350586  .00000041  00000-0  42820-4 0  9990
2 15427  98.7542  36.9377 0015507 138.1165 341.6591 14.15947041615865
NOAA 10 [-]             
1 16969U 86073A   16092.54071605  .00000028  00000-0  28521-4 0  9993
2 16969  98.4729 108.6271 0013134 130.5929 341.5665 14.27959783537402
NOAA 11 [-]             
1 19531U 88089A   16092.16765773  .00000004  00000-0  23922-4 0  9998
2 19531  98.6088 161.2414 0010496 221.6837 138.3538 14.15183074420234
NOAA 12 [-]             
1 21263U 91032A   16092.54795959  .00000008  00000-0  21695-4 0  9995
2 21263  98.6029 119.6431 0014663 128.0936 232.1569 14.25806298293797
NOAA 13 [-]             
1 22739U 93050A   16092.35633359 -.00000010  00000-0  17241-4 0  9996
2 22739  98.6213 152.9809 0009410   3.4410 356.6825 14.12649223167052
NOAA 14 [-]             
1 23455U 94089A   16092.51456239 -.00000017  00000-0  13568-4 0  9998
2 23455  98.7254 172.6742 0008992 342.3494  17.7365 14.14072603 96419
NOAA 15 [B]             
1 25338U 98030A   16092.51654303  .00000080  00000-0  52389-4 0  9995
2 25338  98.7836  96.5121 0011521  52.8094 307.4135 14.25713950930064
NOAA 16 [-]             
1 26536U 00055A   16092.47433090  .00000009  00000-0  28502-4 0  9990
2 26536  98.9038 162.6300 0011411 130.4877 229.7292 14.13140421800526
NOAA 17 [-]             
1 27453U 02032A   16092.52624277  .00000063  00000-0  44440-4 0  9990
2 27453  98.3761  69.7036 0012770  57.3705 302.8706 14.24935404715861
NOAA 18 [B]             
1 28654U 05018A   16092.54848238  .00000022  00000-0  37291-4 0  9999
2 28654  99.1985  97.4848 0013552 227.0703 132.9332 14.12276531559919
NOAA 19 [+]             
1 33591U 09005A   16092.49093137  .00000113  00000-0  86542-4 0  9993
2 33591  99.0318  48.6703 0015056  75.8338 284.4505 14.12057027368310
NPP [+]                 
1 37849U 11061A   16090.95008692  .00000058  00000-0  48017-4 0  9992
2 37849  98.7155  30.3231 0001251  50.9535  13.6620 14.19542606229218
